NORAD_CAT_ID,OBJECT_NAME,OBJECT_TYPE,EPOCH,MEAN_MOTION,ECCENTRICITY,INCLINATION,RA_OF_ASC_NODE,ARG_OF_PERICENTER,MEAN_ANOMALY,BSTAR,MEAN_MOTION_DOT,MEAN_MOTION_DDOT,TLE_LINE0,TLE_LINE1,TLE_LINE2,SEMIMAJOR_AXIS,PERIOD,APOGEE,PERIGEE,DECAYED
52852.0,STARLINK-4184,PAYLOAD,2023-10-22 09:01:12,15.08843214,0.0001526,53.2175,326.6252,91.5201,268.5966,0.00019866,2.875e-05,0.0,0 STARLINK-4184,1 52852U 22062Y   23295.37584305  .00002875  00000-0  19866-3 0  9995,2 52852  53.2175 326.6252 0001526  91.5201 268.5966 15.08843214 75173,6917.871,95.437,540.791,538.68,0.0
52852.0,STARLINK-4184,PAYLOAD,2023-10-23 08:52:00,15.08837461,0.0001319,53.2168,322.1624,82.6951,277.4191,5.2438e-05,5.47e-06,0.0,0 STARLINK-4184,1 52852U 22062Y   23296.36945362  .00000547  00000-0  52438-4 0  9996,2 52852  53.2168 322.1624 0001319  82.6951 277.4191 15.08837461 75325,6917.888,95.438,540.666,538.841,0.0
52852.0,STARLINK-4184,PAYLOAD,2023-10-23 18:24:19,15.08838514,0.0001401,53.2166,320.3786,84.6968,275.4184,4.623e-05,4.48e-06,0.0,0 STARLINK-4184,1 52852U 22062Y   23296.76689342  .00000448  00000-0  46230-4 0  9996,2 52852  53.2166 320.3786 0001401  84.6968 275.4184 15.08838514 74895,6917.885,95.438,540.719,538.781,0.0
52852.0,STARLINK-4184,PAYLOAD,2023-10-24 08:42:47,15.08842843,0.0001417,53.217,317.7045,92.3496,267.7659,1.8558e-05,7e-08,0.0,0 STARLINK-4184,1 52852U 22062Y   23297.36305285  .00000007  00000-0  18558-4 0  9997,2 52852  53.2170 317.7045 0001417  92.3496 267.7659 15.08842843 74988,6917.872,95.437,540.717,538.756,0.0
52852.0,STARLINK-4184,PAYLOAD,2023-10-25 10:08:57,15.08847286,0.0001434,53.2168,312.9464,95.4392,264.6764,0.00019235,2.775e-05,0.0,0 STARLINK-4184,1 52852U 22062Y   23298.42288782  .00002775  00000-0  19235-3 0  9993,2 52852  53.2168 312.9464 0001434  95.4392 264.6764 15.08847286 75637,6917.858,95.437,540.715,538.731,0.0
52852.0,STARLINK-4184,PAYLOAD,2023-10-26 00:27:26,15.08847879,0.0002165,53.2176,310.2714,88.3193,271.8047,1.561e-05,-4e-07,0.0,0 STARLINK-4184,1 52852U 22062Y   23299.01905311 -.00000040  00000-0  15610-4 0  9991,2 52852  53.2176 310.2714 0002165  88.3193 271.8047 15.08847879 75729,6917.856,95.437,541.219,538.224,0.0
52852.0,STARLINK-4184,PAYLOAD,2023-10-26 09:59:45,15.08841216,0.0001536,53.2167,308.4854,89.5353,270.5815,7.8023e-05,9.54e-06,0.0,0 STARLINK-4184,1 52852U 22062Y   23299.41649437  .00000954  00000-0  78023-4 0  9999,2 52852  53.2167 308.4854 0001536  89.5353 270.5815 15.08841216 75789,6917.877,95.437,540.804,538.679,0.0
52852.0,STARLINK-4184,PAYLOAD,2023-10-27 09:50:31,15.08856364,0.0001535,53.2153,304.0232,94.4582,265.6585,0.00021957,3.21e-05,0.0,0 STARLINK-4184,1 52852U 22062Y   23300.41008303  .00003210  00000-0  21957-3 0  9994,2 52852  53.2153 304.0232 0001535  94.4582 265.6585 15.08856364 75930,6917.83,95.437,540.757,538.633,0.0
52852.0,STARLINK-4184,PAYLOAD,2023-10-27 17:47:27,15.08842348,0.0001549,53.2173,302.5337,105.8172,254.2991,3.9823e-05,3.46e-06,0.0,0 STARLINK-4184,1 52852U 22062Y   23300.74128882  .00000346  00000-0  39823-4 0  9994,2 52852  53.2173 302.5337 0001549 105.8172 254.2991 15.08842348 75985,6917.873,95.437,540.81,538.667,0.0
52852.0,STARLINK-4184,PAYLOAD,2023-10-28 09:41:19,15.08839509,0.0001705,53.2152,299.5619,107.5769,252.541,4.9472e-05,4.99e-06,0.0,0 STARLINK-4184,1 52852U 22062Y   23301.40369236  .00000499  00000-0  49472-4 0  9998,2 52852  53.2152 299.5619 0001705 107.5769 252.5410 15.08839509 75594,6917.882,95.438,540.926,538.567,0.0
52852.0,STARLINK-4184,PAYLOAD,2023-10-28 17:38:15,15.08833787,0.0001727,53.2153,298.0734,110.8164,249.3013,-7.8794e-06,-4.13e-06,0.0,0 STARLINK-4184,1 52852U 22062Y   23301.73489626 -.00000413  00000-0 -78794-5 0  9998,2 52852  53.2153 298.0734 0001727 110.8164 249.3013 15.08833787 76133,6917.899,95.438,540.959,538.57,0.0
52852.0,STARLINK-4184,PAYLOAD,2023-10-29 09:32:05,15.08849424,0.0001666,53.2159,295.1003,103.5881,256.5296,0.00012714,1.736e-05,0.0,0 STARLINK-4184,1 52852U 22062Y   23302.39728949  .00001736  00000-0  12714-3 0  9990,2 52852  53.2159 295.1003 0001666 103.5881 256.5296 15.08849424 76232,6917.852,95.437,540.869,538.564,0.0
52852.0,STARLINK-4184,PAYLOAD,2023-10-30 04:36:44,15.08838169,0.0001612,53.2153,291.5325,100.3585,259.7589,0.00016034,2.265e-05,0.0,0 STARLINK-4184,1 52852U 22062Y   23303.19217829  .00002265  00000-0  16034-3 0  9996,2 52852  53.2153 291.5325 0001612 100.3585 259.7589 15.08838169 76357,6917.886,95.438,540.866,538.636,0.0
52852.0,STARLINK-4184,PAYLOAD,2023-10-30 15:44:26,15.08839571,0.000154,53.2154,289.4507,92.304,267.8129,0.0001438,2.001e-05,0.0,0 STARLINK-4184,1 52852U 22062Y   23303.65585865  .00002001  00000-0  14380-3 0  9995,2 52852  53.2154 289.4507 0001540  92.3040 267.8129 15.08839571 75933,6917.882,95.438,540.812,538.681,0.0
52852.0,STARLINK-4184,PAYLOAD,2023-10-31 04:27:31,15.08832802,0.0001628,53.2162,287.0726,92.3629,267.7549,4.799e-07,-2.8e-06,0.0,0 STARLINK-4184,1 52852U 22062Y   23304.18578225 -.00000280  00000-0  47990-6 0  9990,2 52852  53.2162 287.0726 0001628  92.3629 267.7549 15.08832802 76508,6917.902,95.438,540.894,538.641,0.0
52852.0,STARLINK-4184,PAYLOAD,2023-10-31 06:02:54,15.08838742,0.0001674,53.2168,286.7777,91.2967,268.8217,8.2664e-05,1.028e-05,0.0,0 STARLINK-4184,1 52852U 22062Y   23304.25202149  .00001028  00000-0  82664-4 0  9992,2 52852  53.2168 286.7777 0001674  91.2967 268.8217 15.08838742 76020,6917.884,95.438,540.907,538.591,0.0
52852.0,STARLINK-4184,PAYLOAD,2023-10-31 21:56:46,15.08839524,0.0001574,53.2165,283.8038,86.8676,273.2496,0.00018463,2.652e-05,0.0,0 STARLINK-4184,1 52852U 22062Y   23304.91442296  .00002652  00000-0  18463-3 0  9993,2 52852  53.2165 283.8038 0001574  86.8676 273.2496 15.08839524 76120,6917.882,95.438,540.836,538.658,0.0
52852.0,STARLINK-4184,PAYLOAD,2023-11-01 04:18:18,15.08845127,0.0001584,53.2166,282.6146,86.5012,273.6162,0.00020164,2.923e-05,0.0,0 STARLINK-4184,1 52852U 22062Y   23305.17938049  .00002923  00000-0  20164-3 0  9990,2 52852  53.2166 282.6146 0001584  86.5012 273.6162 15.08845127 76658,6917.865,95.437,540.826,538.634,0.0
52852.0,STARLINK-4184,PAYLOAD,2023-11-01 05:53:41,15.08847176,0.0001559,53.2164,282.3171,89.3096,270.8075,0.00026082,3.866e-05,0.0,0 STARLINK-4184,1 52852U 22062Y   23305.24561956  .00003866  00000-0  26082-3 0  9999,2 52852  53.2164 282.3171 0001559  89.3096 270.8075 15.08847176 76171,6917.858,95.437,540.802,538.645,0.0
52852.0,STARLINK-4184,PAYLOAD,2023-11-01 21:47:32,15.08842802,0.0001669,53.2167,279.3443,99.1107,261.0074,0.00014269,1.984e-05,0.0,0 STARLINK-4184,1 52852U 22062Y   23305.90802017  .00001984  00000-0  14269-3 0  9991,2 52852  53.2167 279.3443 0001669  99.1107 261.0074 15.08842802 76279,6917.872,95.437,540.891,538.582,0.0
52852.0,STARLINK-4184,PAYLOAD,2023-11-02 04:09:05,15.08840711,0.0001748,53.217,278.1551,101.8913,258.2275,0.00020247,2.936e-05,0.0,0 STARLINK-4184,1 52852U 22062Y   23306.17298153  .00002936  00000-0  20247-3 0  9992,2 52852  53.2170 278.1551 0001748 101.8913 258.2275 15.08840711 76801,6917.878,95.438,540.952,538.534,0.0
52852.0,STARLINK-4184,PAYLOAD,2023-11-02 05:44:28,15.0884685,0.0001754,53.2163,277.8557,91.3207,268.7986,0.00015161,2.126e-05,0.0,0 STARLINK-4184,1 52852U 22062Y   23306.23921880  .00002126  00000-0  15161-3 0  9999,2 52852  53.2163 277.8557 0001754  91.3207 268.7986 15.08846850 76323,6917.859,95.437,540.938,538.511,0.0
52852.0,STARLINK-4184,PAYLOAD,2023-11-02 21:38:20,15.08839526,0.0001809,53.2162,274.8837,91.5145,268.6055,-1.2341e-06,-3.08e-06,0.0,0 STARLINK-4184,1 52852U 22062Y   23306.90162152 -.00000308  00000-0 -12341-5 0  9993,2 52852  53.2162 274.8837 0001809  91.5145 268.6055 15.08839526 76423,6917.882,95.438,540.998,538.495,0.0
52852.0,STARLINK-4184,PAYLOAD,2023-11-03 03:59:53,15.08831911,0.0001446,53.2158,273.6917,92.0181,268.0977,-0.00014087,-2.529e-05,0.0,0 STARLINK-4184,1 52852U 22062Y   23307.16658590 -.00002529  00000-0 -14087-3 0  9992,2 52852  53.2158 273.6917 0001446  92.0181 268.0977 15.08831911 76952,6917.905,95.438,540.77,538.77,0.0
52852.0,STARLINK-4184,PAYLOAD,2023-11-03 07:10:39,15.08833206,0.000147,53.2161,273.098,94.1497,265.9663,-4.5631e-05,-1.014e-05,0.0,0 STARLINK-4184,1 52852U 22062Y   23307.29907196 -.00001014  00000-0 -45631-4 0  9993,2 52852  53.2161 273.0980 0001470  94.1497 265.9663 15.08833206 76485,6917.901,95.438,540.783,538.749,0.0
52852.0,STARLINK-4184,PAYLOAD,2023-11-04 03:50:39,15.08850274,0.0001734,53.2164,269.2316,94.3005,265.8185,0.00011399,1.527e-05,0.0,0 STARLINK-4184,1 52852U 22062Y   23308.16017909  .00001527  00000-0  11399-3 0  9994,2 52852  53.2164 269.2316 0001734  94.3005 265.8185 15.08850274 77100,6917.849,95.437,540.914,538.514,0.0
52852.0,STARLINK-4184,PAYLOAD,2023-11-04 14:58:21,15.08845638,0.0001604,53.216,267.1494,87.9385,272.179,0.00015242,2.139e-05,0.0,0 STARLINK-4184,1 52852U 22062Y   23308.62386259  .00002139  00000-0  15242-3 0  9993,2 52852  53.2160 267.1494 0001604  87.9385 272.1790 15.08845638 77173,6917.863,95.437,540.838,538.619,0.0
52852.0,STARLINK-4184,PAYLOAD,2023-11-05 06:52:12,15.08851874,0.0002111,53.217,264.1714,114.1052,246.0161,0.00035698,5.4e-05,0.0,0 STARLINK-4184,1 52852U 22062Y   23309.28626063  .00005400  00000-0  35698-3 0  9997,2 52852  53.2170 264.1714 0002111 114.1052 246.0161 15.08851874 76781,6917.844,95.437,541.169,538.249,0.0
52852.0,STARLINK-4184,PAYLOAD,2023-11-06 03:32:11,15.08890437,0.0001822,53.2165,260.3097,107.7656,252.3535,0.00078549,0.00012252,0.0,0 STARLINK-4184,1 52852U 22062Y   23310.14735947  .00012252  00000-0  78549-3 0  9991,2 52852  53.2165 260.3097 0001822 107.7656 252.3535 15.08890437 77406,6917.726,95.434,540.852,538.331,0.0
52852.0,STARLINK-4184,PAYLOAD,2023-11-07 03:23:00,15.08808789,0.0001546,53.216,255.847,94.4791,265.6378,-0.0008922,-0.00014447,0.0,0 STARLINK-4184,1 52852U 22062Y   23311.14097878 -.00014447  00000-0 -89220-3 0  9994,2 52852  53.2160 255.8470 0001546  94.4791 265.6378 15.08808789 77557,6917.976,95.44,540.91,538.771,0.0
